ONEWEB-0687             
1 61595U 24188B   25054.21424791  .00003989  00000+0  47955-3 0  9996
2 61595  86.5752 116.4219 0006418 124.3150 235.8682 14.83709500 19922
ONEWEB-0688             
1 61596U 24188C   25054.21750048  .00004152  00000+0  49929-3 0  9990
2 61596  86.5761 116.4446 0005930 123.8296 236.3492 14.83711221 19690
ONEWEB-0689             
1 61597U 24188D   25053.91668981 -.00815341  00000+0 -55337+0 0  9999
2 61597  87.1224 119.1867 0004372 126.3881 113.9329 14.03316190  5632
ONEWEB-0690             
1 61598U 24188E   25054.58335648 -.00598303  00000+0 -26681+0 0  9991
2 61598  87.2033 118.9055 0009484 129.1464  33.7177 14.25548209 19665
ONEWEB-0691             
1 61599U 24188F   25054.16668981 -.00800457  00000+0 -50351+0 0  9992
2 61599  87.1386 119.1276 0006789 121.0013 349.0895 14.07471571 19735
ONEWEB-0692             
1 61600U 24188G   25054.25003472 -.00857238  00000+0 -55201+0 0  9991
2 61600  87.1390 119.1129 0003617 135.8257 154.9541 14.06405016 19674
ONEWEB-0693             
1 61601U 24188H   25054.21792997  .00004199  00000+0  50501-3 0  9995
2 61601  86.5675 116.3226 0004118 122.6860 237.4761 14.83709875 19858
ONEWEB-0695             
1 61602U 24188J   25053.91668981 -.00818905  00000+0 -53616+0 0  9993
2 61602  87.1416 119.2248 0004328 120.6878 220.8844 14.05333034  5661
